1 88888U          80275.98708465  .00073094  13844-3  66816-4 0     8
2 88888  72.8435 115.9689 0086731  52.6988 110.5714 16.05824518   105

Reference number: 10
Ephem set number: 0
Ephem type: 0
Year: 1980
Day: 275.98708465
Average motion n0 ( rad/s ): 0.0700673126 ( 16.058245180 1/day )
BSTAR Drag term: 0.0000668160
Orbit declination i0 ( rad ): 1.2713589137 (  72.8435 deg )
Right accending raan ( rad ): 2.0240391349 ( 115.9689 deg )
Excentricity e0: 0.0086731
Perigelium arg w0 ( rad ): 0.9197675718 (  52.6988 deg )
Average anomaly m0 ( rad ): 1.9298349885 ( 110.5714 deg )

drag: 0.0001129926
   0  2328.87330091 -5995.21265957  1720.04860799  2.91210628 -0.98353806 -7.09081552
 360  2456.04638944 -6071.90492663  1222.83939251  2.67936164 -0.44820689 -7.22888597
 720  2567.68503999 -6112.40873905   713.29056593  2.43992421  0.09894177 -7.32018816
1080  2663.49578411 -6115.18153289   194.62559917  2.19525089  0.65453937 -7.36308979
1440  2743.29435279 -6078.90669174  -329.74076681  1.94680613  1.21500821 -7.35625566

Отклонения от эталона:
   0  0.00065076  0.00023106 -0.00023539 -0.00000033  0.00000044  0.00000002
 360  0.00061307 -0.00001941 -0.00147358 -0.00000081  0.00000158 -0.00000044
 720  0.00120210  0.00007443 -0.00225786 -0.00000134  0.00000258 -0.00000047
1080  0.00069744  0.00029084 -0.00256893 -0.00000147  0.00000276 -0.00000005
1440  0.00196387  0.00114517 -0.00642614 -0.00000344  0.00000712  0.00000029
